[{"OBJECT_NAME":"STELLA","OBJECT_ID":"1993-061B","EPOCH":"2026-03-09T22:50:14.153280","MEAN_MOTION":14.2746756,"ECCENTRICITY":0.00067535,"INCLINATION":98.784,"RA_OF_ASC_NODE":132.7988,"ARG_OF_PERICENTER":156.9855,"MEAN_ANOMALY":327.7404,"EPHEMERIS_TYPE":0,"CLASSIFICATION_TYPE":"U","NORAD_CAT_ID":22824,"ELEMENT_SET_NO":999,"REV_AT_EPOCH":69061,"BSTAR":7.617075e-6,"MEAN_MOTION_DOT":-2.6e-7,"MEAN_MOTION_DDOT":0},{"OBJECT_NAME":"CZ-6A DEB","OBJECT_ID":"2024-140LT","EPOCH":"2026-03-09T14:52:37.497216","MEAN_MOTION":14.18193718,"ECCENTRICITY":0.0052555,"INCLINATION":89.0022,"RA_OF_ASC_NODE":286.5641,"ARG_OF_PERICENTER":150.3521,"MEAN_ANOMALY":210.0665,"EPHEMERIS_TYPE":0,"CLASSIFICATION_TYPE":"U","NORAD_CAT_ID":60968,"ELEMENT_SET_NO":999,"REV_AT_EPOCH":8093,"BSTAR":0.00025784,"MEAN_MOTION_DOT":5.51e-6,"MEAN_MOTION_DDOT":0}]
